OSIRIS-3U               
1 43027U 98067NL  18346.38339344  .00079541  00000-0  42045-3 0  9999
2 43027  51.6346 180.2990 0003983 165.9644 194.1468 15.79889463 60425
AEROCUBE 7B             
1 43042U 17071F   18345.93132156  .00002429  00000-0  69875-4 0  9996
2 43042  51.6382 254.9002 0004784 181.6419 178.4551 15.39981210 56983
AEROCUBE 7C             
1 43043U 17071G   18345.86641190  .00002733  00000-0  77418-4 0  9992
2 43043  51.6385 255.2264 0004854 183.1217 176.9738 15.39968338 56944
CHEFSAT                 
1 43044U 17071H   18346.12021066  .00005397  00000-0  13550-3 0  9992
2 43044  51.6387 251.7307 0004772 180.7656 179.3322 15.41651712 57018
ASGARDIA 1              
1 43049U 17071N   18345.83316787  .00003643  00000-0  99437-4 0  9992
2 43049  51.6389 255.0186 0002202 193.4405 166.6522 15.40089938 56931
ISARA                   
1 43050U 17071P   18345.82443701  .00005820  00000-0  14693-3 0  9999
2 43050  51.6382 253.4855 0002088 185.2274 174.8689 15.41318683 56967
FAUNA                   
1 43052U 17071R   18346.12723780  .00002618  00000-0  73788-4 0  9996
2 43052  51.6388 253.2462 0002140 188.8201 171.2747 15.40289459 56980
CORVUS BC3              
1 43118U 18004H   18346.33093584  .00000776  00000-0  36517-4 0  9993
2 43118  97.5123  49.0796 0010433 183.1778 176.9394 15.22538025 50813
MICROMAS-2A             
1 43131U 18004W   18345.94468348  .00001781  00000-0  77781-4 0  9993
2 43131  97.5135  49.0203 0009483 186.4488 173.6628 15.23429015 50779
CICERO 7                
1 43143U 18004AJ  18345.66466901  .00001564  00000-0  68157-4 0  9994
2 43143  97.5131  48.9220 0007232 195.1264 164.9757 15.23696017 50745
GOMX4-B                 
1 43196U 18015E   18346.50632103  .00000428  00000-0  20669-4 0  9991
2 43196  97.3683 112.0554 0017663 249.9143 110.0164 15.23778000 47685
GOMX4-A                 
1 43197U 18015F   18346.44191131  .00000526  00000-0  24675-4 0  9996
2 43197  97.3691 112.0000 0017702 248.8664 155.2685 15.23847858 47688
1KUNS-PF                
1 43466U 98067NP  18346.02350649  .00012375  00000-0  15682-3 0  9997
2 43466  51.6377 207.2872 0001530 119.6224 240.4921 15.59887124 33419
UBAKUSAT                
1 43467U 98067NQ  18346.02576354  .00008870  00000-0  11954-3 0  9994
2 43467  51.6371 208.0512 0003279  88.3254 271.8114 15.58668194 33416
BATSU-CS1 (IRAZU)       
1 43468U 98067NR  18345.64546342  .00016748  00000-0  20271-3 0  9991
2 43468  51.6372 208.5117 0001532 123.6715 236.4424 15.60806865133356
CUBERRT                 
1 43546U 98067NU  18345.67939038  .00018110  00000-0  23910-3 0  9997
2 43546  51.6369 211.7292 0006641 139.4360 220.7129 15.58422435 23468
TEMPEST-D               
1 43547U 98067NV  18346.20641627  .00003238  00000-0  52668-4 0  9990
2 43547  51.6376 209.9944 0006635 134.2319 225.9218 15.55956305 23214
RAINCUBE                
1 43548U 98067NW  18346.22951081  .00008781  00000-0  12509-3 0  9998
2 43548  51.6376 209.4001 0006656 145.0699 215.0731 15.57172086 23676
HALOSAT                 
1 43549U 98067NX  18345.65228841  .00010924  00000-0  15379-3 0  9996
2 43549  51.6375 212.2965 0006530 145.2605 214.8815 15.57196083 23142
ENDUROSAT ONE           
1 43551U 98067NZ  18345.67387812  .00010867  00000-0  14951-3 0  9996
2 43551  51.6373 211.6881 0007119 151.5763 208.5619 15.57821306 23563
EQUISAT                 
1 43552U 98067PA  18345.62573161  .00009988  00000-0  13999-3 0  9999
2 43552  51.6371 212.1189 0007326 151.6289 208.5103 15.57427696 23510
AEROCUBE 12A            
1 43556U 18046C   18345.81882298  .00000812  00000-0  42040-4 0  9994
2 43556  51.6422 242.2251 0009271 112.8441 247.3518 15.28098087 22678
AEROCUBE 12B            
1 43557U 18046D   18346.14813397  .00000472  00000-0  29842-4 0  9993
2 43557  51.6422 240.6725 0009243 113.8877 246.3072 15.28043984 22670
UITMSAT-1               
1 43589U 98067PD  18345.67654285  .00010123  00000-0  14351-3 0  9997
2 43589  51.6372 212.4533 0006652 158.7176 201.4094 15.57103567 19256
MAYA-1                  
1 43590U 98067PE  18345.67437939  .00010077  00000-0  14275-3 0  9997
2 43590  51.6371 212.4395 0006721 159.4966 200.6297 15.57128620 19180
BHUTAN-1                
1 43591U 98067PF  18345.67122623  .00010255  00000-0  14492-3 0  9998
2 43591  51.6371 212.4189 0006823 160.7028 199.4223 15.57171300 19186
SIRIUSSAT-1             
1 43595U 98067PG  18345.64381787  .00010758  00000-0  15455-3 0  9995
2 43595  51.6370 212.9813 0004648 118.4989 241.6471 15.56671327 18353
SIRIUSSAT-2             
1 43596U 98067PH  18345.65487911  .00010684  00000-0  15440-3 0  9995
2 43596  51.6380 213.0666 0005295 120.8968 239.2545 15.56515537 18351
TANUSHA-3               
1 43597U 98067PJ  18345.63846478  .00013074  00000-0  18413-3 0  9990
2 43597  51.6359 212.9338 0004849 131.8637 228.2769 15.56988302 18351
SURFSAT                 
1 43614U 18070B   18346.12268615  .00002910  00000-0  81392-4 0  9996
2 43614  93.0364 285.7040 0014716 321.1036  38.9157 15.36641368 13444
CP-7 (DAVE)             
1 43615U 18070C   18345.79693298  .00002813  00000-0  78706-4 0  9995
2 43615  93.0364 285.5701 0014790 322.1443  37.8768 15.36627553 13392
ELFIN-B                 
1 43616U 18070D   18346.37639943  .00003867  00000-0  10729-3 0  9998
2 43616  93.0335 285.7730 0015962 323.3172  36.6986 15.36845497 13487
ELFIN-A                 
1 43617U 18070E   18345.78856924  .00004324  00000-0  11989-3 0  9991
2 43617  93.0386 285.5991 0014958 322.2325  37.7877 15.36876398 13398
DEBRISSAT-1             
1 43621U 98067PM  18345.96257903  .00100583  00000-0  95173-3 0  9993
2 43621  51.6400 208.4298 0010224 165.3585 194.7728 15.66106005 13438
CUBEBEL-1 (BSUSAT-1)    
1 43666U 18083E   18346.48736755  .00001129  00000-0  60123-4 0  9991
2 43666  97.5352   7.1264 0016890 118.9128  20.1375 15.17178767  6747
DEBRISSAT-2             
1 43680U 98067PR  18346.20866201  .00015742  00000-0  22359-3 0  9991
2 43680  51.6391 209.9937 0004664 143.7212 216.4096 15.56580947 27183
CICERO 10               
1 43690U 18088A   18346.34294522  .00001325  00000-0  60777-4 0  9992
2 43690  85.0393  82.4654 0015787 169.9814 190.1744 15.19287878  4744
IRVINE01                
1 43693U 18088D   18346.38359857  .00002136  00000-0  95350-4 0  9998
2 43693  85.0369  82.3881 0019916 158.8776 201.3292 15.20556337  4747
PROXIMA I               
1 43694U 18088E   18346.43856108  .00001084  00000-0  46744-4 0  9990
2 43694  85.0337  82.3173 0020796 150.4877 209.7543 15.21043395  4753
PROXIMA II              
1 43696U 18088G   18346.10947485  .00001079  00000-0  46511-4 0  9991
2 43696  85.0338  82.5348 0020789 151.6078 208.6301 15.21048566  4700
FACSAT-1                
1 43721U 18096C   18346.40980560  .00001410  00000-0  58033-4 0  9994
2 43721  97.4838  51.4083 0016756 273.3873  86.5448 15.25734732  2025
CENTAURI-2              
1 43722U 18096D   18346.47474808  .00001759  00000-0  71469-4 0  9999
2 43722  97.4836  51.4751 0016861 273.9716  85.9595 15.25815498  2020
